NORAD_CAT_ID,OBJECT_NAME,OBJECT_TYPE,EPOCH,MEAN_MOTION,ECCENTRICITY,INCLINATION,RA_OF_ASC_NODE,ARG_OF_PERICENTER,MEAN_ANOMALY,BSTAR,MEAN_MOTION_DOT,MEAN_MOTION_DDOT,TLE_LINE0,TLE_LINE1,TLE_LINE2,SEMIMAJOR_AXIS,PERIOD,APOGEE,PERIGEE,DECAYED
51803.0,STARLINK-3544,PAYLOAD,2023-05-01 15:48:54,15.08839778,0.0001309,53.2175,351.4671,92.3671,267.7471,3.7653e-05,3.11e-06,0.0,0 STARLINK-3544,1 51803U 22017AM  23121.65896180  .00000311  00000-0  37653-4 0  9994,2 51803  53.2175 351.4671 0001309  92.3671 267.7471 15.08839778 66451,6917.881,95.438,540.652,538.841,0.0
51803.0,STARLINK-3544,PAYLOAD,2023-05-01 22:10:26,15.08841404,0.0001412,53.2187,350.2819,98.7768,261.3384,5.664e-05,6.14e-06,0.0,0 STARLINK-3544,1 51803U 22017AM  23121.92392164  .00000614  00000-0  56640-4 0  9990,2 51803  53.2187 350.2819 0001412  98.7768 261.3384 15.08841404 66493,6917.876,95.437,540.718,538.764,0.0
51803.0,STARLINK-3544,PAYLOAD,2023-05-02 18:50:27,15.08841032,0.0001342,53.2178,346.4156,98.2014,261.913,0.00011893,1.605e-05,0.0,0 STARLINK-3544,1 51803U 22017AM  23122.78504170  .00001605  00000-0  11893-3 0  9998,2 51803  53.2178 346.4156 0001342  98.2014 261.9130 15.08841032 66622,6917.877,95.437,540.671,538.814,0.0
51803.0,STARLINK-3544,PAYLOAD,2023-05-02 20:25:50,15.08841696,0.0001342,53.2177,346.1182,97.143,262.9715,0.00012389,1.684e-05,0.0,0 STARLINK-3544,1 51803U 22017AM  23122.85128131  .00001684  00000-0  12389-3 0  9993,2 51803  53.2177 346.1182 0001342  97.1430 262.9715 15.08841696 66634,6917.875,95.437,540.669,538.812,0.0
51803.0,STARLINK-3544,PAYLOAD,2023-05-03 13:55:05,15.0884376,0.0001353,53.2175,342.8441,78.4609,281.6535,0.00010795,1.431e-05,0.0,0 STARLINK-3544,1 51803U 22017AM  23123.57991976  .00001431  00000-0  10795-3 0  9997,2 51803  53.2175 342.8441 0001353  78.4609 281.6535 15.08843760 66749,6917.869,95.437,540.67,538.798,0.0
51803.0,STARLINK-3544,PAYLOAD,2023-05-03 20:16:38,15.08834427,0.0001423,53.2193,341.6547,93.6398,266.4757,2.7913e-05,1.56e-06,0.0,0 STARLINK-3544,1 51803U 22017AM  23123.84488976  .00000156  00000-0  27913-4 0  9992,2 51803  53.2193 341.6547 0001423  93.6398 266.4757 15.08834427 66786,6917.897,95.438,540.747,538.778,0.0
51803.0,STARLINK-3544,PAYLOAD,2023-05-03 21:52:01,15.08834955,0.0001414,53.2193,341.3575,94.9865,265.1289,2.8102e-05,1.59e-06,0.0,0 STARLINK-3544,1 51803U 22017AM  23123.91112928  .00000159  00000-0  28102-4 0  9995,2 51803  53.2193 341.3575 0001414  94.9865 265.1289 15.08834955 66790,6917.896,95.438,540.739,538.783,0.0
51803.0,STARLINK-3544,PAYLOAD,2023-05-04 13:45:52,15.08845583,0.0001299,53.219,338.3856,92.1688,267.9453,5.6992e-05,6.19e-06,0.0,0 STARLINK-3544,1 51803U 22017AM  23124.57352334  .00000619  00000-0  56992-4 0  9994,2 51803  53.2190 338.3856 0001299  92.1688 267.9453 15.08845583 66892,6917.863,95.437,540.627,538.83,0.0
51803.0,STARLINK-3544,PAYLOAD,2023-05-04 18:32:01,15.08848615,0.0001394,53.2191,337.4935,106.9413,253.1732,9.0484e-05,1.153e-05,0.0,0 STARLINK-3544,1 51803U 22017AM  23124.77223992  .00001153  00000-0  90484-4 0  9991,2 51803  53.2191 337.4935 0001394 106.9413 253.1732 15.08848615 66927,6917.854,95.437,540.683,538.755,0.0
51803.0,STARLINK-3544,PAYLOAD,2023-05-04 21:42:47,15.08848796,0.0001409,53.2174,336.8977,82.3755,277.7397,0.00014444,2.012e-05,0.0,0 STARLINK-3544,1 51803U 22017AM  23124.90471922  .00002012  00000-0  14444-3 0  9990,2 51803  53.2174 336.8977 0001409  82.3755 277.7397 15.08848796 66941,6917.854,95.437,540.693,538.744,0.0
51803.0,STARLINK-3544,PAYLOAD,2023-05-05 19:58:12,15.0883922,0.0001172,53.2164,332.7347,97.0334,263.0792,6.8492e-05,8.02e-06,0.0,0 STARLINK-3544,1 51803U 22017AM  23125.83208365  .00000802  00000-0  68492-4 0  9990,2 51803  53.2164 332.7347 0001172  97.0334 263.0792 15.08839220 67084,6917.883,95.438,540.559,538.937,0.0
51803.0,STARLINK-3544,PAYLOAD,2023-05-05 23:08:58,15.08841618,0.0001122,53.2166,332.1391,93.4236,266.6884,9.6121e-05,1.242e-05,0.0,0 STARLINK-3544,1 51803U 22017AM  23125.96456388  .00001242  00000-0  96121-4 0  9993,2 51803  53.2166 332.1391 0001122  93.4236 266.6884 15.08841618 67103,6917.875,95.437,540.517,538.964,0.0
51803.0,STARLINK-3544,PAYLOAD,2023-05-06 19:48:59,15.08842099,0.0001085,53.2163,328.2732,92.147,267.9646,6.4447e-05,7.38e-06,0.0,0 STARLINK-3544,1 51803U 22017AM  23126.82568514  .00000738  00000-0  64447-4 0  9999,2 51803  53.2163 328.2732 0001085  92.1470 267.9646 15.08842099 67237,6917.874,95.437,540.49,538.988,0.0
51803.0,STARLINK-3544,PAYLOAD,2023-05-07 19:39:46,15.08841862,0.0001055,53.2165,323.8117,101.9007,258.2104,7.8001e-05,9.54e-06,0.0,0 STARLINK-3544,1 51803U 22017AM  23127.81928460  .00000954  00000-0  78001-4 0  9990,2 51803  53.2165 323.8117 0001055 101.9007 258.2104 15.08841862 67384,6917.875,95.437,540.47,539.01,0.0
51803.0,STARLINK-3544,PAYLOAD,2023-05-08 19:30:33,15.08842228,9.57e-05,53.2164,319.3532,94.1867,265.9235,9.4007e-05,1.209e-05,0.0,0 STARLINK-3544,1 51803U 22017AM  23128.81288484  .00001209  00000-0  94007-4 0  9994,2 51803  53.2164 319.3532 0000957  94.1867 265.9235 15.08842228 67535,6917.874,95.437,540.401,539.077,0.0
51803.0,STARLINK-3544,PAYLOAD,2023-05-10 04:53:39,15.08838335,8.48e-05,53.2163,313.1058,74.0129,286.0957,8.6344e-06,-1.5e-06,0.0,0 STARLINK-3544,1 51803U 22017AM  23130.20393134 -.00000150  00000-0  86344-5 0  9990,2 51803  53.2163 313.1058 0000848  74.0129 286.0957 15.08838335 67748,6917.885,95.438,540.337,539.164,0.0
51803.0,STARLINK-3544,PAYLOAD,2023-05-10 19:12:07,15.08845398,7.71e-05,53.2166,310.4335,97.2566,262.8514,7.4356e-05,8.96e-06,0.0,0 STARLINK-3544,1 51803U 22017AM  23130.80008609  .00000896  00000-0  74356-4 0  9991,2 51803  53.2166 310.4335 0000771  97.2566 262.8514 15.08845398 67834,6917.864,95.437,540.262,539.196,0.0
51803.0,STARLINK-3544,PAYLOAD,2023-05-11 04:44:26,15.08836365,0.0001143,53.2164,308.6439,72.4207,287.691,4.3838e-05,4.1e-06,0.0,0 STARLINK-3544,1 51803U 22017AM  23131.19753319  .00000410  00000-0  43838-4 0  9992,2 51803  53.2164 308.6439 0001143  72.4207 287.6910 15.08836365 67892,6917.891,95.438,540.547,538.966,0.0
51803.0,STARLINK-3544,PAYLOAD,2023-05-11 17:27:31,15.08841993,0.0001028,53.2167,306.267,76.183,283.9276,7.8125e-06,-1.63e-06,0.0,0 STARLINK-3544,1 51803U 22017AM  23131.72745174 -.00000163  00000-0  78125-5 0  9995,2 51803  53.2167 306.2670 0001028  76.1830 283.9276 15.08841993 67977,6917.874,95.437,540.45,539.028,0.0
51803.0,STARLINK-3544,PAYLOAD,2023-05-12 04:35:13,15.08842004,0.0001003,53.2172,304.1874,85.8478,274.2629,1.2597e-05,-8.7e-07,0.0,0 STARLINK-3544,1 51803U 22017AM  23132.19113124 -.00000087  00000-0  12597-4 0  9996,2 51803  53.2172 304.1874 0001003  85.8478 274.2629 15.08842004 68042,6917.874,95.437,540.433,539.045,0.0
51803.0,STARLINK-3544,PAYLOAD,2023-05-12 17:18:18,15.08843323,9.52e-05,53.2168,301.8077,87.4319,272.6782,-2.2393e-05,-6.44e-06,0.0,0 STARLINK-3544,1 51803U 22017AM  23132.72105305 -.00000644  00000-0 -22393-4 0  9992,2 51803  53.2168 301.8077 0000952  87.4319 272.6782 15.08843323 68126,6917.87,95.437,540.394,539.077,0.0
51803.0,STARLINK-3544,PAYLOAD,2023-05-12 18:53:41,15.08845377,9.87e-05,53.2168,301.5099,85.9958,274.1147,-7.401e-06,-4.06e-06,0.0,0 STARLINK-3544,1 51803U 22017AM  23132.78729118 -.00000406  00000-0 -74010-5 0  9992,2 51803  53.2168 301.5099 0000987  85.9958 274.1147 15.08845377 68131,6917.864,95.437,540.412,539.046,0.0
51803.0,STARLINK-3544,PAYLOAD,2023-05-12 23:39:50,15.08852642,9.96e-05,53.217,300.6177,85.5007,274.6099,5.615e-05,6.06e-06,0.0,0 STARLINK-3544,1 51803U 22017AM  23132.98600404  .00000606  00000-0  56150-4 0  9994,2 51803  53.2170 300.6177 0000996  85.5007 274.6099 15.08852642 68169,6917.842,95.437,540.396,539.018,0.0
51803.0,STARLINK-3544,PAYLOAD,2023-05-13 04:26:01,15.08836012,5.52e-05,53.2171,299.7264,88.9008,271.2047,-8.999e-05,-1.719e-05,0.0,0 STARLINK-3544,1 51803U 22017AM  23133.18473617 -.00001719  00000-0 -89990-4 0  9997,2 51803  53.2171 299.7264 0000552  88.9008 271.2047 15.08836012 68193,6917.893,95.438,540.139,539.376,0.0
51803.0,STARLINK-3544,PAYLOAD,2023-05-13 17:09:05,15.08845326,9.5e-05,53.2166,297.3481,82.1475,277.9625,0.00010032,1.309e-05,0.0,0 STARLINK-3544,1 51803U 22017AM  23133.71464875  .00001309  00000-0  10032-3 0  9995,2 51803  53.2166 297.3481 0000950  82.1475 277.9625 15.08845326 68270,6917.864,95.437,540.386,539.072,0.0
51803.0,STARLINK-3544,PAYLOAD,2023-05-14 04:16:47,15.08841992,8.86e-05,53.2164,295.2675,78.1479,281.9612,8.8637e-05,1.123e-05,0.0,0 STARLINK-3544,1 51803U 22017AM  23134.17833082  .00001123  00000-0  88637-4 0  9997,2 51803  53.2164 295.2675 0000886  78.1479 281.9612 15.08841992 68341,6917.874,95.437,540.352,539.126,0.0
51803.0,STARLINK-3544,PAYLOAD,2023-05-14 16:59:53,15.08840963,0.0001112,53.2174,292.8858,95.9267,264.1852,1.2871e-05,-8.3e-07,0.0,0 STARLINK-3544,1 51803U 22017AM  23134.70825462 -.00000083  00000-0  12871-4 0  9991,2 51803  53.2174 292.8858 0001112  95.9267 264.1852 15.08840963 68428,6917.877,95.437,540.512,538.973,0.0
51803.0,STARLINK-3544,PAYLOAD,2023-05-14 20:10:39,15.08844492,0.0001137,53.2174,292.2919,89.0059,271.1063,3.9918e-05,3.48e-06,0.0,0 STARLINK-3544,1 51803U 22017AM  23134.84073165  .00000348  00000-0  39918-4 0  9995,2 51803  53.2174 292.2919 0001137  89.0059 271.1063 15.08844492 68445,6917.867,95.437,540.518,538.945,0.0
51803.0,STARLINK-3544,PAYLOAD,2023-05-15 10:29:07,15.08832909,8.57e-05,53.218,289.6156,85.5161,274.5929,9.4423e-05,1.215e-05,0.0,0 STARLINK-3544,1 51803U 22017AM  23135.43689724  .00001215  00000-0  94423-4 0  9991,2 51803  53.2180 289.6156 0000857  85.5161 274.5929 15.08832909 68536,6917.902,95.438,540.36,539.174,0.0
51803.0,STARLINK-3544,PAYLOAD,2023-05-15 16:50:40,15.08841918,0.0001107,53.2168,288.4257,89.2608,270.8511,8.7569e-05,1.106e-05,0.0,0 STARLINK-3544,1 51803U 22017AM  23135.70185226  .00001106  00000-0  87569-4 0  9991,2 51803  53.2168 288.4257 0001107  89.2608 270.8511 15.08841918 68577,6917.875,95.437,540.505,538.974,0.0
